AL MUNTHER              
1 63240U 25052AG  26068.64540749  .00017933  00000+0  65015-3 0  9992
2 63240  97.4001 323.9152 0008027 130.7043 229.4895 15.28381521 54798
STARLINK-35512          
1 66330U 25253M   26068.43697577  .00029255  00000+0  10683-2 0  9997
2 66330  42.9985 214.1234 0000367 188.9051 171.1794 15.27582162 20205
